HAIYANG-2D              
1 48621U 21043A   26183.32981984  .00000097  00000+0  16172-3 0  9990
2 48621  65.9993 267.0002 0011530 267.2876  92.6873 13.83372627258641
2021-050D               
1 48843U 21050D   26183.18040490  .00004655  00000+0  19807-3 0  9998
2 48843  97.3338 258.8750 0005120 194.5360 165.5731 15.23478686281248
TYVAK-0173              
1 48892U 21059P   26183.18789497  .00001958  00000+0  25112-3 0  9997
2 48892  96.0080 255.8160 0008446 350.7772   9.3290 14.81939395270460
MANDRAKE 2 ABLE         
1 48907U 21059AE  26183.10078895  .00024281  00000+0  35552-3 0  9992
2 48907  97.7027  14.0276 0003419 297.8469  62.2438 15.55581017279443
MANDRAKE 2 BAKER        
1 48908U 21059AF  26182.98795376  .00030660  00000+0  37545-3 0  9990
2 48908  97.6991  16.8827 0002119 289.2882  70.8145 15.60328929279600
PACE-1                  
1 48909U 21059AG  26183.09008550  .00118177  00000+0  56081-3 0  9991
2 48909  97.6735  22.9422 0002464 210.5812 149.5312 15.82616399280156
YAM-3                   
1 48915U 21059AN  26183.25101734  .00013412  00000+0  25054-3 0  9996
2 48915  97.6983  11.1935 0003810 309.0134  51.0776 15.48887623279324
FARADAY_PHOENIX         
1 48924U 21059AX  26183.09440151  .00183125  00000+0  85289-3 0  9992
2 48924  97.6774  22.8286 0004647 238.8966 121.1847 15.82840842280017
DEMO8 (TENZING)         
1 48951U 21059CA  26183.10380564  .00023117  00000+0  33867-3 0  9994
2 48951  97.7014  17.6638 0005344 290.5642  69.5038 15.55565056279622
NAPA-2                  
1 48963U 21059CN  26183.31082209  .01740078  25953-5  80067-3 0  9992
2 48963  97.6477  24.8855 0007321 250.0099 110.0402 16.21831929280248
FENGYUN 3E              
1 49008U 21062A   26183.28161373  .00000342  00000+0  18192-3 0  9995
2 49008  98.7488 186.5213 0002692  61.2987 298.8459 14.19906211258728
ISS (NAUKA)             
1 49044U 21066A   26182.50817465  .00006185  00000+0  11827-3 0  9992
2 49044  51.6311 229.1989 0004224 255.0896 104.9625 15.49503254608691
STARLINK-3100           
1 49144U 21082Q   26182.92774912  .00000420  00000+0  43001-4 0  9992
2 49144  70.0000   6.4123 0003036 268.1041  91.9770 14.98333220263099
CUTE                    
1 49263U 21088D   26183.23462249  .00448586  89169-4  86545-3 0  9998
2 49263  97.4101 284.0530 0003324 213.7633 146.3434 16.00429839264950
2021-091B               
1 49316U 21091B   26183.28120337  .00001751  00000+0  87711-4 0  9993
2 49316  97.4467  10.6255 0013212 355.5840   4.5275 15.18623453261279
SDGSAT 1                
1 49387U 21100A   26183.31431767  .00001544  00000+0  76489-4 0  9998
2 49387  97.2622 229.6864 0008460 208.6612 151.4159 15.19181879258215
TEIKYOSAT-4 (OORURI)    
1 49396U 21102B   26183.03538983  .00002045  00000+0  13105-3 0  9999
2 49396  97.3665 211.9415 0010599 237.4640 122.5567 15.09559630254969
Z-SAT                   
1 49399U 21102E   26183.22425650  .00005359  00000+0  26307-3 0  9998
2 49399  97.3315 218.0909 0016157 188.7274 171.3682 15.18377872255728
HIBARI                  
1 49400U 21102F   26183.09537209  .00013392  00000+0  43404-3 0  9993
2 49400  97.3224 228.8303 0012857 142.0196 218.1955 15.32040204256474
KOSEN-1                 
1 49402U 21102H   26182.69002769  .00008992  00000+0  34054-3 0  9999
2 49402  97.3171 224.5662 0014705 150.6699 209.5369 15.27038812256238
GLOBAL-14               
1 49469U 21106A   26183.28349865  .00023787  00000+0  39727-3 0  9994
2 49469  42.0019 201.3159 0015351 132.8775 227.3361 15.51289845260470
GAOFEN-3 02             
1 49495U 21109A   26183.31204434  .00000229  00000+0  82629-4 0  9998
2 49495  98.4082 191.1938 0001887 332.9135  27.1956 14.42219459242498
GLOBAL-12               
1 49772U 21115BA  26183.12254806  .00038258  00000+0  57453-3 0  9999
2 49772  53.1957 332.6798 0002605  72.9347 287.1950 15.54537028258225
GLOBAL-13               
1 49773U 21115BB  26183.24393177  .00024219  00000+0  48490-3 0  9991
2 49773  53.1983 342.9823 0002184 142.3293 217.7869 15.46645669258097
GLOBAL-17               
1 49949U 21120A   26182.81937562  .00034361  00000+0  53571-3 0  9991
2 49949  41.9958 322.0580 0014897 351.5089   8.5501 15.53056678257170
GLOBAL-16               
1 49950U 21120B   26183.11040101  .00031810  00000+0  53675-3 0  9992
2 49950  41.9965 324.3358 0013125 343.3509  16.6903 15.50913594257168
XW-3 (CAS-9)            
1 50466U 21131B   26183.25734465  .00000590  00000+0  19594-3 0  9999
2 50466  98.4992 275.5654 0005196  62.8008 297.3710 14.41371480237287
ION SCV-004             
1 50993U 22002K   26183.20660631  .00005969  00000+0  20426-3 0  9991
2 50993  97.2821 240.5837 0005747 307.5417  52.5302 15.30597981247598
ETV-A1                  
1 51060U 22002CE  26183.27525931  .00012702  00000+0  30995-3 0  9992
2 51060  97.2870 249.5394 0003381 292.5418  67.5471 15.40994260248160
BRO-5                   
1 51061U 22002CF  26183.25020347  .00033327  00000+0  63295-3 0  9997
2 51061  97.2989 257.0601 0004045 253.9782 106.1023 15.48207963248584
