OBJECT_NAME,OBJECT_ID,EPOCH,MEAN_MOTION,ECCENTRICITY,INCLINATION,RA_OF_ASC_NODE,ARG_OF_PERICENTER,MEAN_ANOMALY,EPHEMERIS_TYPE,CLASSIFICATION_TYPE,NORAD_CAT_ID,ELEMENT_SET_NO,REV_AT_EPOCH,BSTAR,MEAN_MOTION_DOT,MEAN_MOTION_DDOT
HAIYANG-2D,2021-043A,2026-07-02T07:54:56.434176,13.83372627,.00115302,65.9993,267.0002,267.2876,92.6873,0,U,48621,999,25864,.16172196E-3,.97E-6,0
2021-050D,2021-050D,2026-07-02T04:19:46.983360,15.23478686,.00051207,97.3338,258.8750,194.5360,165.5731,0,U,48843,999,28124,.19806639E-3,.4655E-4,0
TYVAK-0173,2021-059P,2026-07-02T04:30:34.125408,14.81939395,.00084469,96.0080,255.8160,350.7772,9.3290,0,U,48892,999,27046,.25111987E-3,.1958E-4,0
MANDRAKE 2 ABLE,2021-059AE,2026-07-02T02:25:08.165280,15.55581017,.00034196,97.7027,14.0276,297.8469,62.2438,0,U,48907,999,27944,.35551885E-3,.24281E-3,0
MANDRAKE 2 BAKER,2021-059AF,2026-07-01T23:42:39.204864,15.60328929,.00021196,97.6991,16.8827,289.2882,70.8145,0,U,48908,999,27960,.37544942E-3,.3066E-3,0
PACE-1,2021-059AG,2026-07-02T02:09:43.387200,15.82616399,.00024649,97.6735,22.9422,210.5812,149.5312,0,U,48909,999,28015,.56081174E-3,.118177E-2,0
YAM-3,2021-059AN,2026-07-02T06:01:27.898176,15.48887623,.00038109,97.6983,11.1935,309.0134,51.0776,0,U,48915,999,27932,.25054433E-3,.13412E-3,0
FARADAY_PHOENIX,2021-059AX,2026-07-02T02:15:56.290464,15.82840842,.00046473,97.6774,22.8286,238.8966,121.1847,0,U,48924,999,28001,.85288649E-3,.183125E-2,0
DEMO8 (TENZING),2021-059CA,2026-07-02T02:29:28.807296,15.55565056,.00053445,97.7014,17.6638,290.5642,69.5038,0,U,48951,999,27962,.3386708E-3,.23117E-3,0
NAPA-2,2021-059CN,2026-07-02T07:27:35.028576,16.21831929,.00073212,97.6477,24.8855,250.0099,110.0402,0,U,48963,999,28024,.80067068E-3,.1740078E-1,.2595309E-5
FENGYUN 3E,2021-062A,2026-07-02T06:45:31.426272,14.19906211,.00026929,98.7488,186.5213,61.2987,298.8459,0,U,49008,999,25872,.18191849E-3,.342E-5,0
ISS (NAUKA),2021-066A,2026-07-01T12:11:46.289760,15.49503254,.00042241,51.6311,229.1989,255.0896,104.9625,0,U,49044,999,60869,.11826728E-3,.6185E-4,0
STARLINK-3100,2021-082Q,2026-07-01T22:15:57.523968,14.98333220,.00030368,70.0000,6.4123,268.1041,91.9770,0,U,49144,999,26309,.43001068E-4,.42E-5,0
CUTE,2021-088D,2026-07-02T05:37:51.383136,16.00429839,.00033249,97.4101,284.0530,213.7633,146.3434,0,U,49263,999,26495,.8654476E-3,.448586E-2,.89169336E-4
2021-091B,2021-091B,2026-07-02T06:44:55.971168,15.18623453,.00132124,97.4467,10.6255,355.5840,4.5275,0,U,49316,999,26127,.87711088E-4,.1751E-4,0
SDGSAT 1,2021-100A,2026-07-02T07:32:37.046688,15.19181879,.00084605,97.2622,229.6864,208.6612,151.4159,0,U,49387,999,25821,.76489079E-4,.1544E-4,0
TEIKYOSAT-4 (OORURI),2021-102B,2026-07-02T00:50:57.681312,15.09559630,.0010599,97.3665,211.9415,237.4640,122.5567,0,U,49396,999,25496,.13104992E-3,.2045E-4,0
Z-SAT,2021-102E,2026-07-02T05:22:55.761600,15.18377872,.00161577,97.3315,218.0909,188.7274,171.3682,0,U,49399,999,25572,.26307496E-3,.5359E-4,0
HIBARI,2021-102F,2026-07-02T02:17:20.148576,15.32040204,.00128577,97.3224,228.8303,142.0196,218.1955,0,U,49400,999,25647,.43404345E-3,.13392E-3,0
KOSEN-1,2021-102H,2026-07-01T16:33:38.392416,15.27038812,.00147056,97.3171,224.5662,150.6699,209.5369,0,U,49402,999,25623,.34053948E-3,.8992E-4,0
GLOBAL-14,2021-106A,2026-07-02T06:48:14.283360,15.51289845,.00153519,42.0019,201.3159,132.8775,227.3361,0,U,49469,999,26047,.39727328E-3,.23787E-3,0
GAOFEN-3 02,2021-109A,2026-07-02T07:29:20.630976,14.42219459,.00018871,98.4082,191.1938,332.9135,27.1956,0,U,49495,999,24249,.82628809E-4,.229E-5,0
GLOBAL-12,2021-115BA,2026-07-02T02:56:28.152384,15.54537028,.00026059,53.1957,332.6798,72.9347,287.1950,0,U,49772,999,25822,.57452699E-3,.38258E-3,0
GLOBAL-13,2021-115BB,2026-07-02T05:51:15.704928,15.46645669,.00021843,53.1983,342.9823,142.3293,217.7869,0,U,49773,999,25809,.48490143E-3,.24219E-3,0
GLOBAL-17,2021-120A,2026-07-01T19:39:54.053568,15.53056678,.00148973,41.9958,322.0580,351.5089,8.5501,0,U,49949,999,25717,.53571116E-3,.34361E-3,0
GLOBAL-16,2021-120B,2026-07-02T02:38:58.647264,15.50913594,.0013125,41.9965,324.3358,343.3509,16.6903,0,U,49950,999,25716,.53675196E-3,.3181E-3,0
XW-3 (CAS-9),2021-131B,2026-07-02T06:10:34.577760,14.41371480,.00051968,98.4992,275.5654,62.8008,297.3710,0,U,50466,999,23728,.19593783E-3,.59E-5,0
ION SCV-004,2022-002K,2026-07-02T04:57:30.785184,15.30597981,.00057475,97.2821,240.5837,307.5417,52.5302,0,U,50993,999,24759,.20426475E-3,.5969E-4,0
ETV-A1,2022-002CE,2026-07-02T06:36:22.404384,15.40994260,.00033813,97.2870,249.5394,292.5418,67.5471,0,U,51060,999,24816,.30995267E-3,.12702E-3,0
BRO-5,2022-002CF,2026-07-02T06:00:17.579808,15.48207963,.00040457,97.2989,257.0601,253.9782,106.1023,0,U,51061,999,24858,.63294815E-3,.33327E-3,0
